{"type": "FeatureCollection", "features": [ {"type": "Feature", "properties": {"norad_id": 38552, "name": "METEOSAT-10 (MSG-3)", "group": "weather", "lat": -0.44630951254742934, "lon": 55.32437683748193, "alt_km": 35788.129692525225, "timestamp": "2025-12-05T22:40:48.202384+00:00", "meta": {"OBJECT_NAME": "METEOSAT-10 (MSG-3)", "OBJECT_ID": "2012-035B", "EPOCH": "2025-12-04T23:59:58.795584", "MEAN_MOTION": 1.00272703, "ECCENTRICITY": 8.394e-05, "INCLINATION": 4.2096, "RA_OF_ASC_NODE": 61.7352, "ARG_OF_PERICENTER": 223.7318, "MEAN_ANOMALY": 148.7027, "EPHEMERIS_TYPE": 0, "CLASSIFICATION_TYPE": "U", "NORAD_CAT_ID": 38552, "ELEMENT_SET_NO": 999, "REV_AT_EPOCH": 4891, "BSTAR": 0, "MEAN_MOTION_DOT": 4e-08, "MEAN_MOTION_DDOT": 0}, "tle": {"line1": "1 38552U 12035B   25338.99998606  .00000004  00000+0  00000+0 0  9993", "line2": "2 38552   4.2096  61.7352 0000839 223.7318 148.7027  1.00272703 48919"}}, "geometry": {"type": "Point", "coordinates": [55.32437683748193, -0.44630951254742934]}}, {"type": "Feature", "properties": {"norad_id": 38771, "name": "METOP-B", "group": "weather", "lat": -75.53639394435837, "lon": 173.69779472875365, "alt_km": 828.2116516840233, "timestamp": "2025-12-05T22:40:48.202396+00:00", "meta": {"OBJECT_NAME": "METOP-B", "OBJECT_ID": "2012-049A", "EPOCH": "2025-12-05T06:15:48.603744", "MEAN_MOTION": 14.21404133, "ECCENTRICITY": 0.00025799, "INCLINATION": 98.681, "RA_OF_ASC_NODE": 29.3462, "ARG_OF_PERICENTER": 160.9019, "MEAN_ANOMALY": 199.2255, "EPHEMERIS_TYPE": 0, "CLASSIFICATION_TYPE": "U", "NORAD_CAT_ID": 38771, "ELEMENT_SET_NO": 999, "REV_AT_EPOCH": 68571, "BSTAR": 0.00015394109, "MEAN_MOTION_DOT": 2.93e-06, "MEAN_MOTION_DDOT": 0}, "tle": {"line1": "1 38771U 12049A   25339.26097921  .00000293  00000+0  15394-3 0  9998", "line2": "2 38771  98.6810  29.3462 0002579 160.9019 199.2255 14.21404133685718"}}, "geometry": {"type": "Point", "coordinates": [173.69779472875365, -75.53639394435837]}}, {"type": "Feature", "properties": {"norad_id": 39216, "name": "INSAT-3D", "group": "weather", "lat": 1.392133386260161, "lon": -175.2962486855485, "alt_km": 35781.723424610354, "timestamp": "2025-12-05T22:40:48.202407+00:00", "meta": {"OBJECT_NAME": "INSAT-3D", "OBJECT_ID": "2013-038B", "EPOCH": "2025-12-05T05:45:11.979072", "MEAN_MOTION": 1.00272929, "ECCENTRICITY": 0.00017752, "INCLINATION": 1.4242, "RA_OF_ASC_NODE": 85.0772, "ARG_OF_PERICENTER": 157.7402, "MEAN_ANOMALY": 47.3138, "EPHEMERIS_TYPE": 0, "CLASSIFICATION_TYPE": "U", "NORAD_CAT_ID": 39216, "ELEMENT_SET_NO": 999, "REV_AT_EPOCH": 4513, "BSTAR": 0, "MEAN_MOTION_DOT": -3.27e-06, "MEAN_MOTION_DDOT": 0}, "tle": {"line1": "1 39216U 13038B   25339.23972198 -.00000327  00000+0  00000+0 0  9990", "line2": "2 39216   1.4242  85.0772 0001775 157.7402  47.3138  1.00272929 45132"}}, "geometry": {"type": "Point", "coordinates": [-175.2962486855485, 1.392133386260161]}}, {"type": "Feature", "properties": {"norad_id": 39260, "name": "FENGYUN 3C", "group": "weather", "lat": -72.72536742628951, "lon": -13.392247039975418, "alt_km": 843.5776743169736, "timestamp": "2025-12-05T22:40:48.202419+00:00", "meta": {"OBJECT_NAME": "FENGYUN 3C", "OBJECT_ID": "2013-052A", "EPOCH": "2025-12-05T06:04:16.176864", "MEAN_MOTION": 14.15692805, "ECCENTRICITY": 0.00139066, "INCLINATION": 98.4755, "RA_OF_ASC_NODE": 317.2982, "ARG_OF_PERICENTER": 218.4549, "MEAN_ANOMALY": 141.5636, "EPHEMERIS_TYPE": 0, "CLASSIFICATION_TYPE": "U", "NORAD_CAT_ID": 39260, "ELEMENT_SET_NO": 999, "REV_AT_EPOCH": 63112, "BSTAR": 0.00013759429, "MEAN_MOTION_DOT": 2.29e-06, "MEAN_MOTION_DDOT": 0}, "tle": {"line1": "1 39260U 13052A   25339.25296501  .00000229  00000+0  13759-3 0  9993", "line2": "2 39260  98.4755 317.2982 0013906 218.4549 141.5636 14.15692805631124"}}, "geometry": {"type": "Point", "coordinates": [-13.392247039975418, -72.72536742628951]}}, {"type": "Feature", "properties": {"norad_id": 40069, "name": "METEOR-M 2", "group": "weather", "lat": 51.84387635536068, "lon": 148.74894427228776, "alt_km": 816.721420800648, "timestamp": "2025-12-05T22:40:48.202430+00:00", "meta": {"OBJECT_NAME": "METEOR-M 2", "OBJECT_ID": "2014-037A", "EPOCH": "2025-12-05T06:52:39.926208", "MEAN_MOTION": 14.21382014, "ECCENTRICITY": 0.00047507, "INCLINATION": 98.4895, "RA_OF_ASC_NODE": 317.1572, "ARG_OF_PERICENTER": 234.2548, "MEAN_ANOMALY": 125.8189, "EPHEMERIS_TYPE": 0, "CLASSIFICATION_TYPE": "U", "NORAD_CAT_ID": 40069, "ELEMENT_SET_NO": 999, "REV_AT_EPOCH": 59177, "BSTAR": 0.00014539297, "MEAN_MOTION_DOT": 2.76e-06, "MEAN_MOTION_DDOT": 0}, "tle": {"line1": "1 40069U 14037A   25339.28657322  .00000276  00000+0  14539-3 0  9990", "line2": "2 40069  98.4895 317.1572 0004750 234.2548 125.8189 14.21382014591773"}}, "geometry": {"type": "Point", "coordinates": [148.74894427228776, 51.84387635536068]}}, {"type": "Feature", "properties": {"norad_id": 40267, "name": "HIMAWARI-8", "group": "weather", "lat": -0.0005100008666465082, "lon": -164.16294425301976, "alt_km": 35786.92812643909, "timestamp": "2025-12-05T22:40:48.202441+00:00", "meta": {"OBJECT_NAME": "HIMAWARI-8", "OBJECT_ID": "2014-060A", "EPOCH": "2025-12-05T06:22:38.609760", "MEAN_MOTION": 1.00270051, "ECCENTRICITY": 0.00013758, "INCLINATION": 0.0469, "RA_OF_ASC_NODE": 138.2605, "ARG_OF_PERICENTER": 150.674, "MEAN_ANOMALY": 21.7277, "EPHEMERIS_TYPE": 0, "CLASSIFICATION_TYPE": "U", "NORAD_CAT_ID": 40267, "ELEMENT_SET_NO": 999, "REV_AT_EPOCH": 4081, "BSTAR": 0, "MEAN_MOTION_DOT": -2.64e-06, "MEAN_MOTION_DDOT": 0}, "tle": {"line1": "1 40267U 14060A   25339.26572465 -.00000264  00000+0  00000+0 0  9990", "line2": "2 40267   0.0469 138.2605 0001375 150.6740  21.7277  1.00270051 40819"}}, "geometry": {"type": "Point", "coordinates": [-164.16294425301976, -0.0005100008666465082]}}, {"type": "Feature", "properties": {"norad_id": 40367, "name": "FENGYUN 2G", "group": "weather", "lat": 5.069390751410195, "lon": 154.79294179602076, "alt_km": 35792.512862579766, "timestamp": "2025-12-05T22:40:48.202454+00:00", "meta": {"OBJECT_NAME": "FENGYUN 2G", "OBJECT_ID": "2014-090A", "EPOCH": "2025-12-04T19:20:10.600800", "MEAN_MOTION": 1.00266882, "ECCENTRICITY": 0.00031433, "INCLINATION": 5.1468, "RA_OF_ASC_NODE": 75.1896, "ARG_OF_PERICENTER": 194.5429, "MEAN_ANOMALY": 193.8812, "EPHEMERIS_TYPE": 0, "CLASSIFICATION_TYPE": "U", "NORAD_CAT_ID": 40367, "ELEMENT_SET_NO": 999, "REV_AT_EPOCH": 4005, "BSTAR": 0, "MEAN_MOTION_DOT": -2.91e-06, "MEAN_MOTION_DDOT": 0}, "tle": {"line1": "1 40367U 14090A   25338.80567825 -.00000291  00000+0  00000+0 0  9997", "line2": "2 40367   5.1468  75.1896 0003143 194.5429 193.8812  1.00266882 40051"}}, "geometry": {"type": "Point", "coordinates": [154.79294179602076, 5.069390751410195]}}, {"type": "Feature", "properties": {"norad_id": 40732, "name": "METEOSAT-11 (MSG-4)", "group": "weather", "lat": -0.325008801592948, "lon": 64.59185615840657, "alt_km": 35790.47761443729, "timestamp": "2025-12-05T22:40:48.202467+00:00", "meta": {"OBJECT_NAME": "METEOSAT-11 (MSG-4)", "OBJECT_ID": "2015-034A", "EPOCH": "2025-12-05T03:28:10.109280", "MEAN_MOTION": 1.00265125, "ECCENTRICITY": 0.0001021, "INCLINATION": 2.7164, "RA_OF_ASC_NODE": 72.024, "ARG_OF_PERICENTER": 118.7476, "MEAN_ANOMALY": 304.9041, "EPHEMERIS_TYPE": 0, "CLASSIFICATION_TYPE": "U", "NORAD_CAT_ID": 40732, "ELEMENT_SET_NO": 999, "REV_AT_EPOCH": 527, "BSTAR": 0, "MEAN_MOTION_DOT": 7.3e-07, "MEAN_MOTION_DDOT": 0}, "tle": {"line1": "1 40732U 15034A   25339.14456145  .00000073  00000+0  00000+0 0  9999", "line2": "2 40732   2.7164  72.0240 0001021 118.7476 304.9041  1.00265125  5278"}}, "geometry": {"type": "Point", "coordinates": [64.59185615840657, -0.325008801592948]}}, {"type": "Feature", "properties": {"norad_id": 41105, "name": "ELEKTRO-L 2", "group": "weather", "lat": -3.281804696773158, "lon": 40.857298870353546, "alt_km": 35798.202552169874, "timestamp": "2025-12-05T22:40:48.202496+00:00", "meta": {"OBJECT_NAME": "ELEKTRO-L 2", "OBJECT_ID": "2015-074A", "EPOCH": "2025-12-05T02:13:38.625024", "MEAN_MOTION": 1.00271424, "ECCENTRICITY": 0.00041676, "INCLINATION": 6.2057, "RA_OF_ASC_NODE": 72.9172, "ARG_OF_PERICENTER": 196.9759, "MEAN_ANOMALY": 183.1549, "EPHEMERIS_TYPE": 0, "CLASSIFICATION_TYPE": "U", "NORAD_CAT_ID": 41105, "ELEMENT_SET_NO": 999, "REV_AT_EPOCH": 3656, "BSTAR": 0, "MEAN_MOTION_DOT": -1.09e-06, "MEAN_MOTION_DDOT": 0}, "tle": {"line1": "1 41105U 15074A   25339.09280816 -.00000109  00000+0  00000+0 0  9993", "line2": "2 41105   6.2057  72.9172 0004167 196.9759 183.1549  1.00271424 36567"}}, "geometry": {"type": "Point", "coordinates": [40.857298870353546, -3.281804696773158]}}, {"type": "Feature", "properties": {"norad_id": 41752, "name": "INSAT-3DR", "group": "weather", "lat": 0.05726286248533557, "lon": 129.09029617713793, "alt_km": 35833.87243275089, "timestamp": "2025-12-05T22:40:48.202509+00:00", "meta": {"OBJECT_NAME": "INSAT-3DR", "OBJECT_ID": "2016-054A", "EPOCH": "2025-12-05T02:03:48.194208", "MEAN_MOTION": 1.00269648, "ECCENTRICITY": 0.00145385, "INCLINATION": 0.0727, "RA_OF_ASC_NODE": 88.3639, "ARG_OF_PERICENTER": 180.9555, "MEAN_ANOMALY": 269.8024, "EPHEMERIS_TYPE": 0, "CLASSIFICATION_TYPE": "U", "NORAD_CAT_ID": 41752, "ELEMENT_SET_NO": 999, "REV_AT_EPOCH": 3387, "BSTAR": 0, "MEAN_MOTION_DOT": -6.4e-07, "MEAN_MOTION_DDOT": 0}, "tle": {"line1": "1 41752U 16054A   25339.08597447 -.00000064  00000+0  00000+0 0  9990", "line2": "2 41752   0.0727  88.3639 0014538 180.9555 269.8024  1.00269648 33876"}}, "geometry": {"type": "Point", "coordinates": [129.09029617713793, 0.05726286248533557]}}]}